{
  "type": "FeatureCollection",
  "features": [
    {
      "type": "Feature",
      "properties": {
        "norad_id": 37781,
        "name": "HAIYANG-2A",
        "group": "resource",
        "lat": 48.36311715771609,
        "lon": -10.227610398817355,
        "alt_km": 962.46104651316,
        "timestamp": "2025-12-25T16:53:14.310746+00:00",
        "meta_object_name": "HAIYANG-2A",
        "meta_object_id": "2011-043A",
        "meta_epoch": "2025-12-25T07:56:30.431328",
        "meta_mean_motion": 13.78837366,
        "meta_eccentricity": 0.00015961,
        "meta_inclination": 99.3378,
        "meta_ra_of_asc_node": 0.0712,
        "meta_arg_of_pericenter": 66.4507,
        "meta_mean_anomaly": 293.6812,
        "meta_ephemeris_type": 0,
        "meta_classification_type": "U",
        "meta_norad_cat_id": 37781,
        "meta_element_set_no": 999,
        "meta_rev_at_epoch": 72272,
        "meta_bstar": 0.0003181502,
        "meta_mean_motion_dot": 2.8e-06,
        "meta_mean_motion_ddot": 0,
        "tle_line1": "1 37781U 11043A   25359.33090777  .00000280  00000+0  31815-3 0  9995",
        "tle_line2": "2 37781  99.3378   0.0712 0001596  66.4507 293.6812 13.78837366722729"
      },
      "geometry": {
        "type": "Point",
        "coordinates": [
          -10.227610398817355,
          48.36311715771609
        ]
      }
    },
    {
      "type": "Feature",
      "properties": {
        "norad_id": 37791,
        "name": "RASAT",
        "group": "resource",
        "lat": -3.6128867224822936,
        "lon": 89.28158529676081,
        "alt_km": 658.0592227445941,
        "timestamp": "2025-12-25T16:53:14.310757+00:00",
        "meta_object_name": "RASAT",
        "meta_object_id": "2011-044D",
        "meta_epoch": "2025-12-25T07:31:00.461856",
        "meta_mean_motion": 14.67926825,
        "meta_eccentricity": 0.00212882,
        "meta_inclination": 98.0643,
        "meta_ra_of_asc_node": 88.3841,
        "meta_arg_of_pericenter": 26.9987,
        "meta_mean_anomaly": 67.5453,
        "meta_ephemeris_type": 0,
        "meta_classification_type": "U",
        "meta_norad_cat_id": 37791,
        "meta_element_set_no": 999,
        "meta_rev_at_epoch": 76767,
        "meta_bstar": 0.00015144098,
        "meta_mean_motion_dot": 8.2e-06,
        "meta_mean_motion_ddot": 0,
        "tle_line1": "1 37791U 11044D   25359.31319979  .00000820  00000+0  15144-3 0  9990",
        "tle_line2": "2 37791  98.0643  88.3841 0021288  26.9987  67.5453 14.67926825767676"
      },
      "geometry": {
        "type": "Point",
        "coordinates": [
          89.28158529676081,
          -3.6128867224822936
        ]
      }
    },
    {
      "type": "Feature",
      "properties": {
        "norad_id": 37841,
        "name": "SRMSAT",
        "group": "resource",
        "lat": -10.588225485538494,
        "lon": -119.52784202972651,
        "alt_km": 857.0981730823169,
        "timestamp": "2025-12-25T16:53:14.310767+00:00",
        "meta_object_name": "SRMSAT",
        "meta_object_id": "2011-058D",
        "meta_epoch": "2025-12-24T18:34:49.624608",
        "meta_mean_motion": 14.11515378,
        "meta_eccentricity": 0.00119944,
        "meta_inclination": 19.973,
        "meta_ra_of_asc_node": 35.1176,
        "meta_arg_of_pericenter": 85.055,
        "meta_mean_anomaly": 74.1634,
        "meta_ephemeris_type": 0,
        "meta_classification_type": "U",
        "meta_norad_cat_id": 37841,
        "meta_element_set_no": 999,
        "meta_rev_at_epoch": 73314,
        "meta_bstar": 8.7140631e-05,
        "meta_mean_motion_dot": 4.25e-06,
        "meta_mean_motion_ddot": 0,
        "tle_line1": "1 37841U 11058D   25358.77418547  .00000425  00000+0  87141-4 0  9999",
        "tle_line2": "2 37841  19.9730  35.1176 0011994  85.0550  74.1634 14.11515378733143"
      },
      "geometry": {
        "type": "Point",
        "coordinates": [
          -119.52784202972651,
          -10.588225485538494
        ]
      }
    },
    {
      "type": "Feature",
      "properties": {
        "norad_id": 38012,
        "name": "PLEIADES 1A",
        "group": "resource",
        "lat": 73.83710212629292,
        "lon": 42.51332208107309,
        "alt_km": 689.9625872297429,
        "timestamp": "2025-12-25T16:53:14.310777+00:00",
        "meta_object_name": "PLEIADES 1A",
        "meta_object_id": "2011-076F",
        "meta_epoch": "2025-12-25T07:04:27.723648",
        "meta_mean_motion": 14.58572595,
        "meta_eccentricity": 0.00010667,
        "meta_inclination": 98.1806,
        "meta_ra_of_asc_node": 71.869,
        "meta_arg_of_pericenter": 76.7378,
        "meta_mean_anomaly": 13.643,
        "meta_ephemeris_type": 0,
        "meta_classification_type": "U",
        "meta_norad_cat_id": 38012,
        "meta_element_set_no": 999,
        "meta_rev_at_epoch": 74664,
        "meta_bstar": 9.6026424e-05,
        "meta_mean_motion_dot": 4.01e-06,
        "meta_mean_motion_ddot": 0,
        "tle_line1": "1 38012U 11076F   25359.29476532  .00000401  00000+0  96026-4 0  9992",
        "tle_line2": "2 38012  98.1806  71.8690 0001066  76.7378  13.6430 14.58572595746645"
      },
      "geometry": {
        "type": "Point",
        "coordinates": [
          42.51332208107309,
          73.83710212629292
        ]
      }
    },
    {
      "type": "Feature",
      "properties": {
        "norad_id": 38038,
        "name": "ZIYUAN 1-02C (ZY 1-02C)",
        "group": "resource",
        "lat": 71.54584007021958,
        "lon": -88.13287011169764,
        "alt_km": 752.7061297565506,
        "timestamp": "2025-12-25T16:53:14.310788+00:00",
        "meta_object_name": "ZIYUAN 1-02C (ZY 1-02C)",
        "meta_object_id": "2011-079A",
        "meta_epoch": "2025-12-25T08:21:56.081664",
        "meta_mean_motion": 14.38025839,
        "meta_eccentricity": 0.00075662,
        "meta_inclination": 98.4314,
        "meta_ra_of_asc_node": 65.1291,
        "meta_arg_of_pericenter": 105.6652,
        "meta_mean_anomaly": 323.6657,
        "meta_ephemeris_type": 0,
        "meta_classification_type": "U",
        "meta_norad_cat_id": 38038,
        "meta_element_set_no": 999,
        "meta_rev_at_epoch": 73422,
        "meta_bstar": 0.00018255581,
        "meta_mean_motion_dot": 5.09e-06,
        "meta_mean_motion_ddot": 0,
        "tle_line1": "1 38038U 11079A   25359.34856576  .00000509  00000+0  18256-3 0  9996",
        "tle_line2": "2 38038  98.4314  65.1291 0007566 105.6652 323.6657 14.38025839734229"
      },
      "geometry": {
        "type": "Point",
        "coordinates": [
          -88.13287011169764,
          71.54584007021958
        ]
      }
    },
    {
      "type": "Feature",
      "properties": {
        "norad_id": 38338,
        "name": "ARIRANG-3 (KOMPSAT-3)",
        "group": "resource",
        "lat": 58.338625847511345,
        "lon": 148.14317050535718,
        "alt_km": 685.2370888421628,
        "timestamp": "2025-12-25T16:53:14.310798+00:00",
        "meta_object_name": "ARIRANG-3 (KOMPSAT-3)",
        "meta_object_id": "2012-025B",
        "meta_epoch": "2025-12-25T06:28:48.218592",
        "meta_mean_motion": 14.61728548,
        "meta_eccentricity": 0.000469,
        "meta_inclination": 98.3341,
        "meta_ra_of_asc_node": 313.955,
        "meta_arg_of_pericenter": 293.6101,
        "meta_mean_anomaly": 66.4607,
        "meta_ephemeris_type": 0,
        "meta_classification_type": "U",
        "meta_norad_cat_id": 38338,
        "meta_element_set_no": 999,
        "meta_rev_at_epoch": 72593,
        "meta_bstar": 0.00013090736,
        "meta_mean_motion_dot": 6.04e-06,
        "meta_mean_motion_ddot": 0,
        "tle_line1": "1 38338U 12025B   25359.27000253  .00000604  00000+0  13091-3 0  9994",
        "tle_line2": "2 38338  98.3341 313.9550 0004690 293.6101  66.4607 14.61728548725933"
      },
      "geometry": {
        "type": "Point",
        "coordinates": [
          148.14317050535718,
          58.338625847511345
        ]
      }
    },
    {
      "type": "Feature",
      "properties": {
        "norad_id": 38709,
        "name": "EXACTVIEW-1 (ADS-1B)",
        "group": "resource",
        "lat": -23.17647590747994,
        "lon": -75.50890077431515,
        "alt_km": 816.8824909838058,
        "timestamp": "2025-12-25T16:53:14.310808+00:00",
        "meta_object_name": "EXACTVIEW-1 (ADS-1B)",
        "meta_object_id": "2012-039C",
        "meta_epoch": "2025-12-25T05:49:24.235968",
        "meta_mean_motion": 14.24912861,
        "meta_eccentricity": 0.00101312,
        "meta_inclination": 98.9637,
        "meta_ra_of_asc_node": 107.8951,
        "meta_arg_of_pericenter": 316.6255,
        "meta_mean_anomaly": 43.4125,
        "meta_ephemeris_type": 0,
        "meta_classification_type": "U",
        "meta_norad_cat_id": 38709,
        "meta_element_set_no": 999,
        "meta_rev_at_epoch": 69793,
        "meta_bstar": 8.9781975e-05,
        "meta_mean_motion_dot": 1.63e-06,
        "meta_mean_motion_ddot": 0,
        "tle_line1": "1 38709U 12039C   25359.24264162  .00000163  00000+0  89782-4 0  9990",
        "tle_line2": "2 38709  98.9637 107.8951 0010131 316.6255  43.4125 14.24912861697937"
      },
      "geometry": {
        "type": "Point",
        "coordinates": [
          -75.50890077431515,
          -23.17647590747994
        ]
      }
    }
  ]
}